{
  "type": "FeatureCollection",
  "features": [
    {
      "type": "Feature",
      "properties": {
        "norad_id": 50032,
        "name": "COSMOS 1408 DEB",
        "group": "cosmos-1408-debris",
        "lat": 53.42633801171761,
        "lon": -133.08909911177184,
        "alt_km": 422.02377163010897,
        "timestamp": "2025-12-14T03:55:53.057969+00:00",
        "meta_object_name": "COSMOS 1408 DEB",
        "meta_object_id": "1982-092RU",
        "meta_epoch": "2025-12-13T05:38:09.455424",
        "meta_mean_motion": 15.45702895,
        "meta_eccentricity": 0.00152894,
        "meta_inclination": 82.5643,
        "meta_ra_of_asc_node": 58.0014,
        "meta_arg_of_pericenter": 206.6488,
        "meta_mean_anomaly": 153.3977,
        "meta_ephemeris_type": 0,
        "meta_classification_type": "U",
        "meta_norad_cat_id": 50032,
        "meta_element_set_no": 999,
        "meta_rev_at_epoch": 22611,
        "meta_bstar": 0.0001669379,
        "meta_mean_motion_dot": 8.133e-05,
        "meta_mean_motion_ddot": 0,
        "tle_line1": "1 50032U 82092RU  25347.23483166  .00008133  00000+0  16694-3 0  9998",
        "tle_line2": "2 50032  82.5643  58.0014 0015289 206.6488 153.3977 15.45702895226110"
      },
      "geometry": {
        "type": "Point",
        "coordinates": [
          -133.08909911177184,
          53.42633801171761
        ]
      }
    },
    {
      "type": "Feature",
      "properties": {
        "norad_id": 50058,
        "name": "COSMOS 1408 DEB",
        "group": "cosmos-1408-debris",
        "lat": 61.216445044695845,
        "lon": 81.50971257369382,
        "alt_km": 360.1163680819509,
        "timestamp": "2025-12-14T03:55:53.057990+00:00",
        "meta_object_name": "COSMOS 1408 DEB",
        "meta_object_id": "1982-092SW",
        "meta_epoch": "2025-12-13T06:10:19.981344",
        "meta_mean_motion": 15.64148339,
        "meta_eccentricity": 0.00162595,
        "meta_inclination": 82.6137,
        "meta_ra_of_asc_node": 68.8001,
        "meta_arg_of_pericenter": 96.5116,
        "meta_mean_anomaly": 263.7995,
        "meta_ephemeris_type": 0,
        "meta_classification_type": "U",
        "meta_norad_cat_id": 50058,
        "meta_element_set_no": 999,
        "meta_rev_at_epoch": 22812,
        "meta_bstar": 0.00050124618,
        "meta_mean_motion_dot": 0.00048053,
        "meta_mean_motion_ddot": 0,
        "tle_line1": "1 50058U 82092SW  25347.25717571  .00048053  00000+0  50125-3 0  9990",
        "tle_line2": "2 50058  82.6137  68.8001 0016259  96.5116 263.7995 15.64148339228121"
      },
      "geometry": {
        "type": "Point",
        "coordinates": [
          81.50971257369382,
          61.216445044695845
        ]
      }
    },
    {
      "type": "Feature",
      "properties": {
        "norad_id": 50404,
        "name": "COSMOS 1408 DEB",
        "group": "cosmos-1408-debris",
        "lat": -79.35372003549445,
        "lon": 166.7832731185098,
        "alt_km": 515.3707037196191,
        "timestamp": "2025-12-14T03:55:53.058004+00:00",
        "meta_object_name": "COSMOS 1408 DEB",
        "meta_object_id": "1982-092ADS",
        "meta_epoch": "2025-12-13T01:20:10.686336",
        "meta_mean_motion": 15.13857966,
        "meta_eccentricity": 0.01714653,
        "meta_inclination": 82.2036,
        "meta_ra_of_asc_node": 214.71,
        "meta_arg_of_pericenter": 197.772,
        "meta_mean_anomaly": 161.7471,
        "meta_ephemeris_type": 0,
        "meta_classification_type": "U",
        "meta_norad_cat_id": 50404,
        "meta_element_set_no": 999,
        "meta_rev_at_epoch": 21198,
        "meta_bstar": 0.00382664,
        "meta_mean_motion_dot": 0.00101014,
        "meta_mean_motion_ddot": 0,
        "tle_line1": "1 50404U 82092ADS 25347.05567924  .00101014  00000+0  38266-2 0  9996",
        "tle_line2": "2 50404  82.2036 214.7100 0171465 197.7720 161.7471 15.13857966211987"
      },
      "geometry": {
        "type": "Point",
        "coordinates": [
          166.7832731185098,
          -79.35372003549445
        ]
      }
    },
    {
      "type": "Feature",
      "properties": {
        "norad_id": 50621,
        "name": "COSMOS 1408 DEB",
        "group": "cosmos-1408-debris",
        "lat": 39.636074738723146,
        "lon": 78.9030610646669,
        "alt_km": 399.7369092582312,
        "timestamp": "2025-12-14T03:55:53.058015+00:00",
        "meta_object_name": "COSMOS 1408 DEB",
        "meta_object_id": "1982-092ALR",
        "meta_epoch": "2025-12-13T06:09:41.487552",
        "meta_mean_motion": 15.56702326,
        "meta_eccentricity": 0.00289171,
        "meta_inclination": 82.5702,
        "meta_ra_of_asc_node": 73.6418,
        "meta_arg_of_pericenter": 150.5332,
        "meta_mean_anomaly": 209.7561,
        "meta_ephemeris_type": 0,
        "meta_classification_type": "U",
        "meta_norad_cat_id": 50621,
        "meta_element_set_no": 999,
        "meta_rev_at_epoch": 22258,
        "meta_bstar": 0.00057463464,
        "meta_mean_motion_dot": 0.0004197,
        "meta_mean_motion_ddot": 0,
        "tle_line1": "1 50621U 82092ALR 25347.25673018  .00041970  00000+0  57463-3 0  9996",
        "tle_line2": "2 50621  82.5702  73.6418 0028917 150.5332 209.7561 15.56702326222581"
      },
      "geometry": {
        "type": "Point",
        "coordinates": [
          78.9030610646669,
          39.636074738723146
        ]
      }
    }
  ]
}